#cP2023  7 26  0  0  0.00000000      96 ORBIT IGS20 HLM  IGS
## 2272 259200.00000000   900.00000000 60151 0.0000000000000
+   32   G01G02G03G04G05G06G07G08G09G10G11G12G13G14G15G16G17
+        G18G19G20G21G22G23G24G25G26G27G28G29G30G31G32  0  0
+          0  0  0  0  0  0  0  0  0  0  0  0  0  0  0  0  0
+          0  0  0  0  0  0  0  0  0  0  0  0  0  0  0  0  0
+          0  0  0  0  0  0  0  0  0  0  0  0  0  0  0  0  0
++         2  2  2  2  2  2  2  2  2  2  2  2  2  2  2  2  3
++         2  3  2  2  2  2  2  2  2  2  2  2  2  2  2  0  0
++         0  0  0  0  0  0  0  0  0  0  0  0  0  0  0  0  0
++         0  0  0  0  0  0  0  0  0  0  0  0  0  0  0  0  0
++         0  0  0  0  0  0  0  0  0  0  0  0  0  0  0  0  0
%c G  cc GPS ccc cccc cccc cccc cccc ccccc ccccc ccccc ccccc
%c cc cc ccc ccc cccc cccc cccc cccc ccccc ccccc ccccc ccccc
%f  1.2500000  1.025000000  0.00000000000  0.000000000000000
%f  0.0000000  0.000000000  0.00000000000  0.000000000000000
%i    0    0    0    0      0      0      0      0         0
%i    0    0    0    0      0      0      0      0         0
/* RAPID ORBIT COMBINATION FROM WEIGHTED AVERAGE OF:        
/* cod emr esa gfz grg jgx jpl ngs sio usn whu              
/* REFERENCED TO IGS TIME (IGST) AND TO WEIGHTED MEAN POLE: 
/* PCV:IGS20      OL/AL:FES2014b NONE     Y  ORB:CMB CLK:CMB
*  2023  7 26  9 45  0.00000000
PG01  13612.146354 -17278.358492  14288.197348    171.222866  7     5  89       
PG02  14867.667998 -11302.154577  19326.249717   -572.249267  7  5  3  75       
PG03  21602.121804 -12934.562161  -8408.120307   -216.258691  6  4  2  94       
PG04  11871.999989  -9552.368182 -21748.940712    106.753235  6  6  6  81       
PG05 -25264.804756   3960.387943  -7561.337634   -136.353680  4  3  5  55       
PG06  -6661.994849 -19713.579613 -16392.031966    574.061045  6  5  4 109       
PG07   5442.285931 -25721.664099     76.756327    114.106331  5  1  5  77       
PG08  19934.092611    643.809345  17657.312732   -134.107706  5  6  5  79       
PG09   2297.733072 -16960.368551 -20374.973514   -102.793518  7  8  3  83       
PG10   7032.475049  13298.807004  22086.499984    -46.692651  7  6  4  74       
PG11 -14103.849384  -5628.556653 -21782.924113   -292.466642  8  6  6  64       
PG12 -24080.587053   9862.413479  -5378.469413   -405.287932  6  4  5  92       
PG13 -20545.958609 -10033.495809  13507.794627    552.043006  5  5  6  39       
PG14  -3204.573138 -15192.783498  21563.302215    134.256574  5  4  3  97       
PG15 -19621.185681   2369.920169  17389.550096     61.598203  6  5  1  82       
PG16  24476.179598   2145.741589 -10951.543924   -476.255695  8  6  6  95       
PG17 -11642.487024 -21721.972350  10185.929355    721.687625  9  6  8 111       
PG18  -4425.411942  25996.944028   2263.281099   -359.589171  6  7  5  92       
PG19 -16834.336246 -20665.825506   1908.283546    349.028593  8  8  4 105       
PG20 -20764.320623  -2234.092772 -16263.724225    420.634142  7  6  4  38       
PG21  15381.152855  -7597.448723  20567.585728    151.674718  7  5  3  69       
PG22  18402.259126  19255.510081   -277.699528    518.181679  7  3  6  93       
PG23  -6944.195821  16552.623052  19523.854117     47.524679  5  4  5  75       
PG24 -14442.623181  13428.749360  17226.986955   -269.974578  6  4  4  66       
PG25 -14114.050552  16443.066324 -15490.933173    458.419996  1  4  5 103       
PG26  17220.678427   8050.520089 -18799.314373    235.241867  6  5  3  76       
PG27  22297.891696  11568.191682   8985.296743    -10.409824  7  5  5  77       
PG28   6707.770363  21101.682785 -14691.398221     80.786143  7  6  4  72       
PG29  -4477.849955  15791.971096 -20910.340488   -606.431942  6  2  3 107       
PG30  -1250.310326 -24903.556957   8883.510171   -501.445384  7  3  5  79       
PG31  12525.946488  11013.253915 -20755.378069   -220.738686  7  1  3  77       
PG32  15411.806719  20521.396298   7416.783121   -528.617645  4  4  5  98       
*  2023  7 26 10  0  0.00000000
PG01  13410.289133 -15464.467743  16385.957728    171.221369  7     6  76       
PG02  14760.739654  -9114.980240  20570.238867   -572.245710  8  5  3  66       
PG03  22410.771610 -13017.556531  -5659.730385   -216.243800  6  4  2  83       
PG04  13684.185151  -7878.119772 -21362.169875    106.763181  6  6  6  80       
PG05 -24431.133369   3390.413292 -10177.376366   -136.355097  5  3  5  75       
PG06  -6206.666505 -21422.343521 -14292.200031    574.057253  6  5  4  93       
PG07   5725.901767 -25459.832687  -2780.494493    114.096723  5     5  66       
PG08  21343.799634   1951.974274  15863.242674   -134.109461  6  6  5  65       
PG09   4190.118397 -15539.616892 -21197.233106   -102.785051  7  8  3  80       
PG10   4693.203605  14142.677890  22156.058789    -46.695195  7  7  5  84       
PG11 -13520.957992  -8030.048104 -21400.357014   -292.481500  8  6  6 111       
PG12 -24555.462200   9744.493855  -2557.820436   -405.292149  7  5  5  76       
PG13 -21368.158235 -11215.428573  11145.711896    552.047491  6  5  6  76       
PG14   -864.308258 -15920.625867  21241.972079    134.267297  5  5  3 102       
PG15 -21185.255388   1153.539421  15660.183571     61.601490  6  5     90       
PG16  23233.497906   2648.929987 -13316.286739   -476.251709  7  6  6  87       
PG17 -10610.600465 -20993.440699  12656.281631    721.688183  8  6  8 110       
PG18  -4670.135751  26044.716497   -626.538447   -359.601708  6  6  4  97       
PG19 -16416.058131 -20513.083970   4735.542424    349.033045  8  7  4  86       
PG20 -19138.870238  -3371.995159 -17984.497462    420.632322  7  6  3  84       
PG21  15281.044407  -5282.772791  21449.752033    151.673936  8  5  2  63       
PG22  18178.288448  19365.069060   2570.097406    518.186520  7  3  5  77       
PG23  -8987.278800  17232.348280  18031.004222     47.528515  4  3  4  87       
PG24 -14460.519916  11274.365582  18702.497733   -269.985400  6  5  4  86       
PG25 -15700.645984  16810.303549 -13358.489125    458.422048  1  3  4 102       
PG26  15263.809383   9052.954169 -19972.735838    235.240616  6  5  4  90       
PG27  22859.639244  12294.146416   6321.718967    -10.416158  7  5  5  78       
PG28   6293.664998  22608.797845 -12460.411094     80.784198  7  6  4  65       
PG29  -6246.700743  14137.675109 -21638.659047   -606.432351  6  3  3 109       
PG30   -775.086693 -25691.101693   6248.239412   -501.442806  6  3  4  61       
PG31  11962.512462  13238.729091 -19716.221513   -220.739156  7     3  96       
PG32  14525.238511  20071.615933  10022.777423   -528.624240  5  4  5  95       
*  2023  7 26 10 15  0.00000000
PG01  13279.671528 -13418.328983  18190.644266    171.219860  7     6  96       
PG02  14768.038693  -6809.422645  21473.832951   -572.241857  8  5  2  61       
PG03  22922.727750 -13018.214288  -2813.587878   -216.228870  6  5  2  95       
PG04  15530.569980  -6342.552641 -20607.996010    106.773133  5  6  6  98       
PG05 -23373.244805   2653.071151 -12620.657966   -136.356456  5  4  6  56       
PG06  -5879.834692 -22902.609691 -11944.443276    574.053456  6  5  4  88       
PG07   5986.596265 -24888.531865  -5588.095325    114.086550  5     5  76       
PG08  22640.517866   3057.441840  13799.355800   -134.112316  6  6  4  80       
PG09   6211.731871 -14176.891433 -21657.000402   -102.776533  7  8  2  90       
PG10   2413.675292  15111.124521  21850.366917    -46.696320  7  7  5  79       
PG11 -13076.496716 -10395.220183 -20649.426797   -292.496457  8  6  6  65       
PG12 -24732.914316   9543.114972    306.915460   -405.296495  7  5  5  59       
PG13 -22054.338151 -12153.713957   8592.259430    552.051317  6  5  7  51       
PG14   1385.144377 -16744.327876  20555.130915    134.278015  6  5  3  99       
PG15 -22615.502661    118.572066  13655.438481     61.604437  6  5  2  72       
PG16  21781.445472   3296.733301 -15460.652979   -476.247135  7  5  6  98       
PG17  -9341.308351 -20150.813984  14912.513825    721.688847  8  5  7 116       
PG18  -4867.881307  25780.071013  -3505.462011   -359.614261  6  6  4  95       
PG19 -15757.320332 -20171.247521   7482.507812    349.037308  7  6  4  81       
PG20 -17424.051115  -4685.309746 -19392.929048    420.630045  7  6  4  88       
PG21  15301.046753  -2897.486258  21975.074910    151.673702  8  5  2  72       
PG22  17724.758179  19273.400054   5374.314873    518.191388  7  3  6  96       
PG23 -10821.965123  17942.523197  16226.158898     47.532407  4  3  4  75       
PG24 -14573.596317   8974.543356  19842.445603   -269.996254  6  6  4  86       
PG25 -17038.715327  17153.719896 -10997.195766    458.424097  2  3  4  99       
PG26  13255.652293  10201.690058 -20808.506585    235.239506  6  4  4  96       
PG27  23213.839354  12804.601825   3551.177519    -10.422464  6  4  5  87       
PG28   5980.391040  23871.892880 -10015.246794     80.782280  7  6  4  88       
PG29  -8148.751168  12542.769792 -21995.975572   -606.433016  6  4  3  92       
PG30   -374.796864 -26198.514701   3504.114433   -501.440218  6  3  4  75       
PG31  11530.813490  15359.240691 -18338.995524   -220.739844  7     4 105       
PG32  13388.473717  19501.703448  12459.474262   -528.630855  6  4  5  91       
EOF
